OBJECT_NAME,OBJECT_ID,EPOCH,MEAN_MOTION,ECCENTRICITY,INCLINATION,RA_OF_ASC_NODE,ARG_OF_PERICENTER,MEAN_ANOMALY,EPHEMERIS_TYPE,CLASSIFICATION_TYPE,NORAD_CAT_ID,ELEMENT_SET_NO,REV_AT_EPOCH,BSTAR,MEAN_MOTION_DOT,MEAN_MOTION_DDOT
GSAT0215 (GALILEO 19),2017-079A,2026-06-07T15:07:36.425280,1.70474655,.00032715,55.0756,221.7698,266.5445,93.5000,0,U,43055,999,5282,0,.42E-6,0
GSAT0216 (GALILEO 20),2017-079B,2026-06-07T08:02:11.841792,1.70474847,.00041563,55.0761,221.7781,276.5849,83.4502,0,U,43056,999,5283,0,.42E-6,0
GSAT0217 (GALILEO 21),2017-079C,2026-06-08T03:24:48.125088,1.70474419,.0003796,55.0741,221.7539,285.5927,74.4469,0,U,43057,999,5284,0,.43E-6,0
GSAT0218 (GALILEO 22),2017-079D,2026-06-08T08:41:42.860832,1.70474754,.0004132,55.0742,221.7453,273.2781,86.7561,0,U,43058,999,5286,0,.44E-6,0
BEIDOU-3 M7 (C27),2018-003A,2026-06-07T16:26:44.489760,1.86228478,.00049856,54.3370,302.6464,91.2024,268.8470,0,U,43107,999,5717,0,-.57E-6,0
BEIDOU-3 M8 (C28),2018-003B,2026-06-07T15:07:25.492224,1.86231337,.00024505,54.3300,302.6304,266.3856,93.5786,0,U,43108,999,5718,0,-.56E-6,0
BEIDOU-3 M4 (C22),2018-018A,2026-06-07T12:52:00.207264,1.86231188,.0007718,56.6419,63.4675,16.8501,343.2027,0,U,43207,999,5656,0,-.4E-6,0
BEIDOU-3 M3 (C21),2018-018B,2026-06-08T03:20:55.965696,1.86231220,.00088128,56.6424,63.4518,338.8483,21.1416,0,U,43208,999,5657,0,-.42E-6,0
BEIDOU-3 M9 (C29),2018-029A,2026-06-08T08:34:31.823328,1.86228284,.00008998,54.2026,300.2584,146.6725,213.3256,0,U,43245,999,5573,0,-.57E-6,0
BEIDOU-3 M10 (C30),2018-029B,2026-06-08T07:00:04.061088,1.86229558,.00040089,54.2000,300.2865,38.1626,321.8582,0,U,43246,999,5571,0,-.57E-6,0
IRNSS-1I,2018-035A,2026-06-08T20:25:24.119040,1.00270351,.0017776,28.7347,74.3271,182.8915,1.2538,0,U,43286,999,2999,0,.92E-6,0
COSMOS 2527 (756),2018-053A,2026-06-08T04:02:54.650112,2.13102353,.00074143,65.5727,74.2082,241.4309,118.5156,0,U,43508,999,6208,0,-.13E-6,0
BEIDOU-2 IGSO-7 (C16),2018-057A,2026-06-07T22:56:30.122880,1.00254381,.01048541,55.1932,163.1382,237.9598,310.0357,0,U,43539,999,2903,0,.24E-6,0
GSAT0221 (GALILEO 25),2018-060A,2026-06-07T16:18:42.494400,1.70476000,.00026985,57.1742,342.0370,308.1771,51.8137,0,U,43564,999,4900,0,-.63E-6,0
GSAT0222 (GALILEO 26),2018-060B,2026-06-06T03:20:56.385600,1.70475822,.0001851,57.1798,342.0825,255.3617,104.6309,0,U,43565,999,4902,0,-.66E-6,0
GSAT0219 (GALILEO 23),2018-060C,2026-06-07T12:48:24.818976,1.70475974,.00022833,57.1754,342.0461,330.3501,29.6519,0,U,43566,999,4902,0,-.63E-6,0
GSAT0220 (GALILEO 24),2018-060D,2026-06-08T08:11:18.198240,1.70475807,.0002254,57.1759,342.0253,317.6959,42.3025,0,U,43567,999,4902,0,-.62E-6,0
BEIDOU-3 M5 (C23),2018-062A,2026-06-07T10:36:21.385152,1.86228982,.00056063,54.0850,182.6354,288.5273,71.4667,0,U,43581,999,5345,0,.98E-6,0
BEIDOU-3 M6 (C24),2018-062B,2026-06-07T20:12:54.768384,1.86227919,.00047958,54.0845,182.6112,9.6261,350.4388,0,U,43582,999,5346,0,.103E-5,0
BEIDOU-3 M12 (C26),2018-067A,2026-06-08T07:37:25.949280,1.86227940,.0007741,54.1798,181.3412,30.1174,329.9822,0,U,43602,999,5295,0,.11E-5,0
BEIDOU-3 M11 (C25),2018-067B,2026-06-06T20:12:12.929184,1.86227396,.00044751,54.1771,181.3547,14.0592,346.0057,0,U,43603,999,5295,0,.93E-6,0
BEIDOU-3 M13 (C32),2018-072A,2026-06-06T06:14:03.962976,1.86231624,.00076633,56.6156,63.0201,326.1226,33.8571,0,U,43622,999,5245,0,-.38E-6,0
BEIDOU-3 M14 (C33),2018-072B,2026-06-06T03:00:17.815680,1.86231665,.0006283,56.6172,63.0188,355.7751,4.2482,0,U,43623,999,5244,0,-.38E-6,0
BEIDOU-3 M16 (C35),2018-078A,2026-06-08T10:17:01.510944,1.86232291,.0007334,54.0984,300.2932,40.8019,319.2453,0,U,43647,999,5199,0,-.58E-6,0
BEIDOU-3 M15 (C34),2018-078B,2026-06-01T13:51:31.248864,1.86232507,.00045363,54.1007,300.5335,56.3394,303.6792,0,U,43648,999,5188,0,-.74E-6,0
BEIDOU-3 G1 (C59),2018-085A,2026-06-08T17:33:55.964736,1.00271619,.0008508,2.8459,97.6156,347.2290,235.7388,0,U,43683,999,2797,0,-.92E-6,0
COSMOS 2529 (757),2018-086A,2026-06-07T07:50:30.395616,2.13102175,.00117267,64.2943,192.9273,256.2462,103.6914,0,U,43687,999,5907,0,.85E-6,0
BEIDOU-3 M17 (C36),2018-093A,2026-06-07T15:25:06.551616,1.86228480,.00100225,54.1686,182.6203,291.3761,66.7230,0,U,43706,999,5135,0,.101E-5,0
BEIDOU-3 M18 (C37),2018-093B,2026-06-08T13:58:43.536576,1.86226850,.00078914,54.1691,182.5804,320.2458,39.7539,0,U,43707,999,5137,0,.112E-5,0
GPS BIII-1  (PRN 04),2018-109A,2026-06-08T18:58:31.239840,2.00561284,.0038211,55.6766,92.5186,198.1248,342.9699,0,U,43873,999,5490,0,.1E-6,0
BEIDOU-3 IGSO-1 (C38),2019-023A,2026-06-06T22:54:10.040832,1.00294886,.00254341,58.6799,37.7569,225.6649,92.8731,0,U,44204,999,710,0,-.215E-5,0
